{"type": "FeatureCollection", "features": [ {"type": "Feature", "properties": {"norad_id": 33841, "name": "COSMOS 2251 DEB", "group": "cosmos-2251-debris", "lat": -32.675888080950934, "lon": -104.03111082439574, "alt_km": 757.3274647262115, "timestamp": "2025-12-18T23:35:49.455894+00:00", "meta": {"OBJECT_NAME": "COSMOS 2251 DEB", "OBJECT_ID": "1993-036CJ", "EPOCH": "2025-12-18T12:55:06.572064", "MEAN_MOTION": 14.37868922, "ECCENTRICITY": 0.00207888, "INCLINATION": 74.0378, "RA_OF_ASC_NODE": 267.366, "ARG_OF_PERICENTER": 346.6943, "MEAN_ANOMALY": 197.0913, "EPHEMERIS_TYPE": 0, "CLASSIFICATION_TYPE": "U", "NORAD_CAT_ID": 33841, "ELEMENT_SET_NO": 999, "REV_AT_EPOCH": 88197, "BSTAR": 0.00017686734, "MEAN_MOTION_DOT": 5.08e-06, "MEAN_MOTION_DDOT": 0}, "tle": {"line1": "1 33841U 93036CJ  25352.53827051  .00000508  00000+0  17687-3 0  9992", "line2": "2 33841  74.0378 267.3660 0020788 346.6943 197.0913 14.37868922881973"}}, "geometry": {"type": "Point", "coordinates": [-104.03111082439574, -32.675888080950934]}}, {"type": "Feature", "properties": {"norad_id": 33842, "name": "COSMOS 2251 DEB", "group": "cosmos-2251-debris", "lat": -29.25957722959241, "lon": -161.167548644253, "alt_km": 722.4844930659892, "timestamp": "2025-12-18T23:35:49.455904+00:00", "meta": {"OBJECT_NAME": "COSMOS 2251 DEB", "OBJECT_ID": "1993-036CK", "EPOCH": "2025-12-18T13:45:07.240608", "MEAN_MOTION": 14.42708642, "ECCENTRICITY": 0.0047445, "INCLINATION": 74.0321, "RA_OF_ASC_NODE": 208.8245, "ARG_OF_PERICENTER": 314.9859, "MEAN_ANOMALY": 44.7456, "EPHEMERIS_TYPE": 0, "CLASSIFICATION_TYPE": "U", "NORAD_CAT_ID": 33842, "ELEMENT_SET_NO": 999, "REV_AT_EPOCH": 88421, "BSTAR": 0.00021412852, "MEAN_MOTION_DOT": 6.95e-06, "MEAN_MOTION_DDOT": 0}, "tle": {"line1": "1 33842U 93036CK  25352.57300047  .00000695  00000+0  21413-3 0  9997", "line2": "2 33842  74.0321 208.8245 0047445 314.9859  44.7456 14.42708642884212"}}, "geometry": {"type": "Point", "coordinates": [-161.167548644253, -29.25957722959241]}}, {"type": "Feature", "properties": {"norad_id": 33844, "name": "COSMOS 2251 DEB", "group": "cosmos-2251-debris", "lat": 54.78116518768649, "lon": 65.25139236043434, "alt_km": 740.0995090532369, "timestamp": "2025-12-18T23:35:49.455915+00:00", "meta": {"OBJECT_NAME": "COSMOS 2251 DEB", "OBJECT_ID": "1993-036CM", "EPOCH": "2025-12-18T14:02:38.356224", "MEAN_MOTION": 14.33727645, "ECCENTRICITY": 0.00470679, "INCLINATION": 74.0669, "RA_OF_ASC_NODE": 42.107, "ARG_OF_PERICENTER": 62.147, "MEAN_ANOMALY": 102.4578, "EPHEMERIS_TYPE": 0, "CLASSIFICATION_TYPE": "U", "NORAD_CAT_ID": 33844, "ELEMENT_SET_NO": 999, "REV_AT_EPOCH": 87809, "BSTAR": 0.00027475609, "MEAN_MOTION_DOT": 7.47e-06, "MEAN_MOTION_DDOT": 0}, "tle": {"line1": "1 33844U 93036CM  25352.58516616  .00000747  00000+0  27476-3 0  9994", "line2": "2 33844  74.0669  42.1070 0047067  62.1470 102.4578 14.33727645878095"}}, "geometry": {"type": "Point", "coordinates": [65.25139236043434, 54.78116518768649]}}, {"type": "Feature", "properties": {"norad_id": 33848, "name": "COSMOS 2251 DEB", "group": "cosmos-2251-debris", "lat": 64.08594947279406, "lon": 129.9172004124824, "alt_km": 728.4822542280872, "timestamp": "2025-12-18T23:35:49.455926+00:00", "meta": {"OBJECT_NAME": "COSMOS 2251 DEB", "OBJECT_ID": "1993-036CR", "EPOCH": "2025-12-18T08:25:33.254976", "MEAN_MOTION": 14.44098746, "ECCENTRICITY": 0.00414379, "INCLINATION": 74.0314, "RA_OF_ASC_NODE": 347.2019, "ARG_OF_PERICENTER": 41.3163, "MEAN_ANOMALY": 23.9016, "EPHEMERIS_TYPE": 0, "CLASSIFICATION_TYPE": "U", "NORAD_CAT_ID": 33848, "ELEMENT_SET_NO": 999, "REV_AT_EPOCH": 87912, "BSTAR": 0.00085989713, "MEAN_MOTION_DOT": 2.95e-05, "MEAN_MOTION_DDOT": 0}, "tle": {"line1": "1 33848U 93036CR  25352.35107934  .00002950  00000+0  85990-3 0  9995", "line2": "2 33848  74.0314 347.2019 0041437  41.3163  23.9016 14.44098746879125"}}, "geometry": {"type": "Point", "coordinates": [129.9172004124824, 64.08594947279406]}}, {"type": "Feature", "properties": {"norad_id": 33892, "name": "COSMOS 2251 DEB", "group": "cosmos-2251-debris", "lat": -64.94739187651585, "lon": 52.22068343572621, "alt_km": 900.1952188076184, "timestamp": "2025-12-18T23:35:49.455937+00:00", "meta": {"OBJECT_NAME": "COSMOS 2251 DEB", "OBJECT_ID": "1993-036CV", "EPOCH": "2025-12-18T09:02:27.742272", "MEAN_MOTION": 14.23358396, "ECCENTRICITY": 0.01125091, "INCLINATION": 73.8035, "RA_OF_ASC_NODE": 91.7745, "ARG_OF_PERICENTER": 121.9151, "MEAN_ANOMALY": 300.6848, "EPHEMERIS_TYPE": 0, "CLASSIFICATION_TYPE": "U", "NORAD_CAT_ID": 33892, "ELEMENT_SET_NO": 999, "REV_AT_EPOCH": 87035, "BSTAR": 0.00050092495, "MEAN_MOTION_DOT": 1.186e-05, "MEAN_MOTION_DDOT": 0}, "tle": {"line1": "1 33892U 93036CV  25352.37670998  .00001186  00000+0  50092-3 0  9996", "line2": "2 33892  73.8035  91.7745 0112509 121.9151 300.6848 14.23358396870350"}}, "geometry": {"type": "Point", "coordinates": [52.22068343572621, -64.94739187651585]}}, {"type": "Feature", "properties": {"norad_id": 33894, "name": "COSMOS 2251 DEB", "group": "cosmos-2251-debris", "lat": 64.29034601243494, "lon": 16.652778853951222, "alt_km": 1605.9601977971497, "timestamp": "2025-12-18T23:35:49.455947+00:00", "meta": {"OBJECT_NAME": "COSMOS 2251 DEB", "OBJECT_ID": "1993-036CX", "EPOCH": "2025-12-16T23:58:28.001280", "MEAN_MOTION": 13.21315162, "ECCENTRICITY": 0.05793568, "INCLINATION": 73.767, "RA_OF_ASC_NODE": 342.4883, "ARG_OF_PERICENTER": 261.3454, "MEAN_ANOMALY": 92.1624, "EPHEMERIS_TYPE": 0, "CLASSIFICATION_TYPE": "U", "NORAD_CAT_ID": 33894, "ELEMENT_SET_NO": 999, "REV_AT_EPOCH": 80764, "BSTAR": 0.00077215059, "MEAN_MOTION_DOT": 7.45e-06, "MEAN_MOTION_DDOT": 0}, "tle": {"line1": "1 33894U 93036CX  25350.99893520  .00000745  00000+0  77215-3 0  9998", "line2": "2 33894  73.7670 342.4883 0579356 261.3454  92.1624 13.21315162807645"}}, "geometry": {"type": "Point", "coordinates": [16.652778853951222, 64.29034601243494]}}, {"type": "Feature", "properties": {"norad_id": 33896, "name": "COSMOS 2251 DEB", "group": "cosmos-2251-debris", "lat": -71.20684864198054, "lon": 24.238342801816863, "alt_km": 788.5190369140491, "timestamp": "2025-12-18T23:35:49.455958+00:00", "meta": {"OBJECT_NAME": "COSMOS 2251 DEB", "OBJECT_ID": "1993-036CZ", "EPOCH": "2025-12-18T10:49:45.854688", "MEAN_MOTION": 14.19052122, "ECCENTRICITY": 0.01266703, "INCLINATION": 73.7662, "RA_OF_ASC_NODE": 146.3139, "ARG_OF_PERICENTER": 321.119, "MEAN_ANOMALY": 103.8811, "EPHEMERIS_TYPE": 0, "CLASSIFICATION_TYPE": "U", "NORAD_CAT_ID": 33896, "ELEMENT_SET_NO": 999, "REV_AT_EPOCH": 86821, "BSTAR": 0.0003613798, "MEAN_MOTION_DOT": 7.9e-06, "MEAN_MOTION_DDOT": 0}, "tle": {"line1": "1 33896U 93036CZ  25352.45122517  .00000790  00000+0  36138-3 0  9993", "line2": "2 33896  73.7662 146.3139 0126670 321.1190 103.8811 14.19052122868212"}}, "geometry": {"type": "Point", "coordinates": [24.238342801816863, -71.20684864198054]}}, {"type": "Feature", "properties": {"norad_id": 33899, "name": "COSMOS 2251 DEB", "group": "cosmos-2251-debris", "lat": 30.3858295545441, "lon": -115.84941482919194, "alt_km": 648.4543104665918, "timestamp": "2025-12-18T23:35:49.455983+00:00", "meta": {"OBJECT_NAME": "COSMOS 2251 DEB", "OBJECT_ID": "1993-036DC", "EPOCH": "2025-12-18T06:44:58.430976", "MEAN_MOTION": 14.61238526, "ECCENTRICITY": 0.00563812, "INCLINATION": 74.0544, "RA_OF_ASC_NODE": 75.1417, "ARG_OF_PERICENTER": 136.2392, "MEAN_ANOMALY": 280.5576, "EPHEMERIS_TYPE": 0, "CLASSIFICATION_TYPE": "U", "NORAD_CAT_ID": 33899, "ELEMENT_SET_NO": 999, "REV_AT_EPOCH": 88920, "BSTAR": 0.00068574293, "MEAN_MOTION_DOT": 3.429e-05, "MEAN_MOTION_DDOT": 0}, "tle": {"line1": "1 33899U 93036DC  25352.28123184  .00003429  00000+0  68574-3 0  9999", "line2": "2 33899  74.0544  75.1417 0056381 136.2392 280.5576 14.61238526889200"}}, "geometry": {"type": "Point", "coordinates": [-115.84941482919194, 30.3858295545441]}}, {"type": "Feature", "properties": {"norad_id": 33900, "name": "COSMOS 2251 DEB", "group": "cosmos-2251-debris", "lat": 57.15795334385211, "lon": 141.60871835929572, "alt_km": 661.4779730091032, "timestamp": "2025-12-18T23:35:49.455995+00:00", "meta": {"OBJECT_NAME": "COSMOS 2251 DEB", "OBJECT_ID": "1993-036DD", "EPOCH": "2025-12-18T15:21:47.011680", "MEAN_MOTION": 14.58366777, "ECCENTRICITY": 0.00465703, "INCLINATION": 74.0182, "RA_OF_ASC_NODE": 348.6206, "ARG_OF_PERICENTER": 139.034, "MEAN_ANOMALY": 339.6705, "EPHEMERIS_TYPE": 0, "CLASSIFICATION_TYPE": "U", "NORAD_CAT_ID": 33900, "ELEMENT_SET_NO": 999, "REV_AT_EPOCH": 89122, "BSTAR": 0.00028767058, "MEAN_MOTION_DOT": 1.322e-05, "MEAN_MOTION_DDOT": 0}, "tle": {"line1": "1 33900U 93036DD  25352.64012745  .00001322  00000+0  28767-3 0  9992", "line2": "2 33900  74.0182 348.6206 0046570 139.0340 339.6705 14.58366777891229"}}, "geometry": {"type": "Point", "coordinates": [141.60871835929572, 57.15795334385211]}}, {"type": "Feature", "properties": {"norad_id": 33901, "name": "COSMOS 2251 DEB", "group": "cosmos-2251-debris", "lat": -37.1180343051364, "lon": 23.34357717972721, "alt_km": 541.0599411239009, "timestamp": "2025-12-18T23:35:49.456005+00:00", "meta": {"OBJECT_NAME": "COSMOS 2251 DEB", "OBJECT_ID": "1993-036DE", "EPOCH": "2025-12-18T09:31:14.440224", "MEAN_MOTION": 15.16540123, "ECCENTRICITY": 0.00306456, "INCLINATION": 73.7748, "RA_OF_ASC_NODE": 37.3169, "ARG_OF_PERICENTER": 169.0613, "MEAN_ANOMALY": 191.1254, "EPHEMERIS_TYPE": 0, "CLASSIFICATION_TYPE": "U", "NORAD_CAT_ID": 33901, "ELEMENT_SET_NO": 999, "REV_AT_EPOCH": 89599, "BSTAR": 0.0024200713, "MEAN_MOTION_DOT": 0.00048056, "MEAN_MOTION_DDOT": 0}, "tle": {"line1": "1 33901U 93036DE  25352.39669491  .00048056  00000+0  24201-2 0  9994", "line2": "2 33901  73.7748  37.3169 0030645 169.0613 191.1254 15.16540123895998"}}, "geometry": {"type": "Point", "coordinates": [23.34357717972721, -37.1180343051364]}}]}